H1 CPF 01  gfz 2022 08 16 12  7282 terrasarx 
H2 0702601  6201 31698    2022 08 16 12 59 42 2022 08 21 00 00 42   120 1 1  0 0 0
H9
10 0 59810  69102.000000  0    6129098.674  -2239218.617   2201212.566
10 0 59810  69222.000000  0    5740751.925  -2287437.651   3036088.705
10 0 59810  69342.000000  0    5251606.769  -2287983.244   3817503.784
10 0 59810  69462.000000  0    4671080.574  -2239171.638   4531710.741
10 0 59810  69582.000000  0    4010214.014  -2140364.564   5166157.734
10 0 59810  69702.000000  0    3281453.107  -1992004.750   5709709.940
10 0 59810  69822.000000  0    2498405.182  -1795627.876   6152841.890
10 0 59810  69942.000000  0    1675578.499  -1553851.140   6487798.583
10 0 59810  70062.000000  0     828109.012  -1270339.669   6708725.414
10 0 59810  70182.000000  0     -28520.801   -949750.345   6811764.760
10 0 59810  70302.000000  0    -878765.049   -597654.334   6795118.092
10 0 59810  70422.000000  0   -1707295.156   -220440.368   6659074.855
10 0 59810  70542.000000  0   -2499274.840    174800.811   6406007.800
10 0 59810  70662.000000  0   -3240625.176    580408.865   6040334.947
10 0 59810  70782.000000  0   -3918276.502    988300.848   5568448.042
10 0 59810  70902.000000  0   -4520403.473   1390130.407   4998607.250
10 0 59810  71022.000000  0   -5036637.955   1777457.184   4340802.309
10 0 59810  71142.000000  0   -5458255.617   2141922.973   3606581.596
10 0 59810  71262.000000  0   -5778331.272   2475430.314   2808851.631
10 0 59810  71382.000000  0   -5991860.665   2770320.014   1961650.669
10 0 59810  71502.000000  0   -6095845.962   3019543.605   1079898.925
10 0 59810  71622.000000  0   -6089340.894   3216826.114    179128.796
10 0 59810  71742.000000  0   -5973453.386   3356814.321   -724796.854
10 0 59810  71862.000000  0   -5751307.312   3435206.755  -1615972.780
10 0 59810  71982.000000  0   -5427964.096   3448862.822  -2478740.639
10 0 59810  72102.000000  0   -5010303.695   3395887.253  -3297971.714
10 0 59810  72222.000000  0   -4506871.338   3275688.427  -4059336.122
10 0 59810  72342.000000  0   -3927693.507   3089009.384  -4749552.858
10 0 59810  72462.000000  0   -3284069.740   2837931.700  -5356616.968
10 0 59810  72582.000000  0   -2588345.633   2525852.745  -5869999.439
10 0 59810  72702.000000  0   -1853672.418   2157438.108  -6280820.562
10 0 59810  72822.000000  0   -1093755.493   1738548.606  -6581992.213
10 0 59810  72942.000000  0    -322600.611   1276145.238  -6768328.093
10 0 59810  73062.000000  0     445739.746    778173.364  -6836623.303
10 0 59810  73182.000000  0    1197415.512    253428.760  -6785704.356
10 0 59810  73302.000000  0    1919024.194   -288594.752  -6616447.943
10 0 59810  73422.000000  0    2597843.989   -837872.821  -6331766.260
10 0 59810  73542.000000  0    3222054.322  -1384031.080  -5936562.836
10 0 59810  73662.000000  0    3780939.878  -1916535.750  -5437656.407
10 0 59810  73782.000000  0    4265076.894  -2424893.509  -4843675.368
10 0 59810  73902.000000  0    4666496.985  -2898857.407  -4164919.055
10 0 59810  74022.000000  0    4978824.417  -3328633.066  -3413189.255
10 0 59810  74142.000000  0    5197385.828  -3705081.684  -2601593.592
10 0 59810  74262.000000  0    5319288.912  -4019915.799  -1744321.449
10 0 59810  74382.000000  0    5343466.236  -4265882.267   -856396.836
10 0 59810  74502.000000  0    5270683.513  -4436928.503     46587.657
10 0 59810  74622.000000  0    5103510.860  -4528347.603    948750.780
10 0 59810  74742.000000  0    4846256.372  -4536896.586   1834210.759
10 0 59810  74862.000000  0    4504864.415  -4460884.985   2687373.875
10 0 59810  74982.000000  0    4086781.882  -4300231.485   3493216.892
10 0 59810  75102.000000  0    3600795.521  -4056488.536   4237558.004
10 0 59810  75222.000000  0    3056843.485  -3732833.309   4907310.778
10 0 59810  75342.000000  0    2465807.482  -3334024.822   5490714.683
10 0 59810  75462.000000  0    1839290.985  -2866330.448   5977540.071
10 0 59810  75582.000000  0    1189386.835  -2337421.979   6359263.055
10 0 59810  75702.000000  0     528441.281  -1756245.584   6629208.380
10 0 59810  75822.000000  0    -131181.901  -1132867.586   6782660.006
10 0 59810  75942.000000  0    -777332.131   -478298.066   6816938.467
10 0 59810  76062.000000  0   -1398294.715    195704.138   6731444.306
10 0 59810  76182.000000  0   -1983002.458    876842.186   6527667.944
10 0 59810  76302.000000  0   -2521232.536   1552504.719   6209165.398
10 0 59810  76422.000000  0   -3003785.951   2209998.441   5781500.229
10 0 59810  76542.000000  0   -3422646.962   2836786.888   5252152.857
10 0 59810  76662.000000  0   -3771120.365   3420731.497   4630395.908
10 0 59810  76782.000000  0   -4043943.265   3950329.706   3927137.226
10 0 59810  76902.000000  0   -4237368.976   4414946.489   3154732.576
10 0 59810  77022.000000  0   -4349220.922   4805033.674   2326769.299
10 0 59810  77142.000000  0   -4378913.785   5112330.767   1457824.597
10 0 59810  77262.000000  0   -4327442.854   5330042.281    563204.235
10 0 59810  77382.000000  0   -4197341.977   5452988.035   -341333.515
10 0 59810  77502.000000  0   -3992609.446   5477723.092  -1239864.948
10 0 59810  77622.000000  0   -3718602.983   5402620.270  -2116592.225
10 0 59810  77742.000000  0   -3381907.262   5227915.568  -2956128.399
10 0 59810  77862.000000  0   -2990178.626   4955716.436  -3743773.078
10 0 59810  77982.000000  0   -2551971.259   4589970.931  -4465770.907
10 0 59810  78102.000000  0   -2076549.517   4136401.803  -5109548.211
10 0 59810  78222.000000  0   -1573691.957   3602408.878  -5663924.380
10 0 59810  78342.000000  0   -1053490.906   2996940.878  -6119298.030
10 0 59810  78462.000000  0    -526150.883   2330338.281  -6467803.152
10 0 59810  78582.000000  0      -1790.944   1614152.802  -6703432.834
10 0 59810  78702.000000  0     509744.782    860947.048  -6822132.551
10 0 59810  78822.000000  0     999067.428     84077.161  -6821863.098
10 0 59810  78942.000000  0    1457412.030   -702539.883  -6702631.583
10 0 59810  79062.000000  0    1876790.180  -1484669.747  -6466489.689
10 0 59810  79182.000000  0    2250126.317  -2248011.307  -6117502.349
10 0 59810  79302.000000  0    2571376.163  -2978452.012  -5661685.993
10 0 59810  79422.000000  0    2835625.883  -3662327.120  -5106916.864
10 0 59810  79542.000000  0    3039169.629  -4286676.952  -4462804.299
10 0 59810  79662.000000  0    3179562.315  -4839493.730  -3740533.869
10 0 59810  79782.000000  0    3255649.010  -5309957.673  -2952684.180
10 0 59810  79902.000000  0    3267569.180  -5688658.105  -2113014.564
10 0 59810  80022.000000  0    3216734.597  -5967790.204  -1236226.944
10 0 59810  80142.000000  0    3105781.289  -6141324.473   -337707.118
10 0 59810  80262.000000  0    2938495.059  -6205142.492    566751.241
10 0 59810  80382.000000  0    2719712.804  -6157134.881   1461230.836
10 0 59810  80502.000000  0    2455203.026  -5997260.823   2329980.491
10 0 59810  80622.000000  0    2151526.390  -5727563.028   3157702.194
10 0 59810  80742.000000  0    1815881.508  -5352140.768   3929826.661
10 0 59810  80862.000000  0    1455939.893  -4877083.391   4632774.150
10 0 59810  80982.000000  0    1079674.978  -4310364.390   5254195.147
10 0 59810  81102.000000  0     695188.178  -3661699.554   5783188.097
10 0 59810  81222.000000  0     310535.642  -2942369.938   6210487.053
10 0 59810  81342.000000  0     -66438.665  -2165018.126   6528616.914
10 0 59810  81462.000000  0    -428260.635  -1343421.878   6732017.378
10 0 59810  81582.000000  0    -767972.386   -492248.241   6817135.375
10 0 59810  81702.000000  0   -1079264.792    373209.649   6782484.024
10 0 59810  81822.000000  0   -1356594.114   1237307.355   6628666.754
10 0 59810  81942.000000  0   -1595280.359   2084331.114   6358367.213
10 0 59810  82062.000000  0   -1791586.689   2898783.073   5976305.632
10 0 59810  82182.000000  0   -1942778.346   3665665.711   5489161.011
10 0 59810  82302.000000  0   -2047159.872   4370760.496   4905460.916
10 0 59810  82422.000000  0   -2104091.060   5000897.498   4235438.729
10 0 59810  82542.000000  0   -2113979.963   5544209.235   3490858.659
10 0 59810  82662.000000  0   -2078253.705   5990363.117   2684810.948
10 0 59810  82782.000000  0   -1999307.281   6330766.475   1831480.931
10 0 59810  82902.000000  0   -1880430.981   6558740.404    945895.751
10 0 59810  83022.000000  0   -1725717.924   6669656.906     43653.744
10 0 59810  83142.000000  0   -1539954.874   6661036.119   -859357.996
10 0 59810  83262.000000  0   -1328498.404   6532601.576  -1747253.900
10 0 59810  83382.000000  0   -1097138.615   6286286.461  -2604440.379
10 0 59810  83502.000000  0    -851956.423   5926194.545  -3415894.540
10 0 59810  83622.000000  0    -599177.432   5458521.330  -4167428.646
10 0 59810  83742.000000  0    -345026.051   4891435.719  -4845937.417
10 0 59810  83862.000000  0     -95582.912   4234925.421  -5439621.702
10 0 59810  83982.000000  0     143351.458   3500610.795  -5938186.578
10 0 59810  84102.000000  0     366383.327   2701530.050  -6333010.177
10 0 59810  84222.000000  0     568639.646   1851902.317  -6617280.815
10 0 59810  84342.000000  0     745868.310    966874.369  -6786103.624
10 0 59810  84462.000000  0     894522.688     62252.996  -6836576.203
10 0 59810  84582.000000  0    1011829.295   -845772.478  -6767832.995
10 0 59810  84702.000000  0    1095837.548  -1740913.424  -6581056.858
10 0 59810  84822.000000  0    1145451.444  -2607065.444  -6279460.293
10 0 59810  84942.000000  0    1160443.527  -3428591.564  -5868238.305
10 0 59810  85062.000000  0    1141448.986  -4190603.298  -5354488.902
10 0 59810  85182.000000  0    1089941.264  -4879230.858  -4747100.139
10 0 59810  85302.000000  0    1008189.612  -5481879.253  -4056608.198
10 0 59810  85422.000000  0     899197.902  -5987467.109  -3295024.756
10 0 59810  85542.000000  0     766626.502  -6386640.830  -2475635.360
99
